ONEWEB-0144             
1 47290U 20100AJ  25144.78591219  .00000223  00000+0  58426-3 0  9997
2 47290  87.8887  67.9017 0002204  85.2327 274.9053 13.12442043213623
ONEWEB-0145             
1 47291U 20100AK  25144.75669288 -.00000115  00000+0 -35474-3 0  9997
2 47291  87.8887  67.9333 0002041  81.3220 278.8140 13.12445158213814
ONEWEB-0146             
1 47292U 20100AL  25144.75344766 -.00000216  00000+0 -63463-3 0  9990
2 47292  87.8889  67.9201 0001707  71.4350 288.6964 13.12444698213724
ONEWEB-0147             
1 47293U 20100AM  25145.17682720 -.00000001  00000+0 -38272-4 0  9996
2 47293  87.8885  67.8168 0001863  87.2810 272.8532 13.12441429213670
ONEWEB-0115             
1 48042U 21025A   25145.12703369 -.00000241  00000+0 -69613-3 0  9992
2 48042  87.8982  37.3342 0001817  78.8778 281.2555 13.13470125202667
ONEWEB-0152             
1 48043U 21025B   25144.75970850  .00000266  00000+0  69483-3 0  9992
2 48043  87.8988  37.4193 0001741  78.3680 281.7645 13.13470521202566
ONEWEB-0153             
1 48044U 21025C   25144.73768254 -.00000339  00000+0 -96410-3 0  9997
2 48044  87.8987  37.4204 0001871  79.5108 280.6232 13.13469013202554
ONEWEB-0154             
1 48045U 21025D   25145.41990861 -.00000295  00000+0 -84271-3 0  9998
2 48045  87.8987  37.2852 0001811  81.4552 278.6782 13.13470472202616
